INMARSAT 4-F2 (SOUTHPA*)
1 28899U 05044A   26061.79289525 -.00000274  00000+0  00000+0 0  9993
2 28899   4.9557  43.8060 0002540 316.1233 229.5729  1.00272087 74452
GSAT-8 (GAGAN/PRN 127)  
1 37605U 11022A   26061.82267102  .00000069  00000+0  00000+0 0  9993
2 37605   1.8562  83.1786 0007489 214.1713 214.4485  1.00271553 52150
LUCH 5A (SDCM/PRN 140)  
1 37951U 11074B   26061.63875796 -.00000061  00000+0  00000+0 0  9990
2 37951   8.4827  75.3733 0004065 242.1610 239.9010  1.00275091 51987
SES-5 (EGNOS/PRN 136)   
1 38652U 12036A   26061.39350299  .00000016  00000+0  00000+0 0  9996
2 38652   0.0626 307.8056 0001918  23.5348 335.4588  1.00272505 43389
GSAT-10 (GAGAN/PRN 128) 
1 38779U 12051B   26061.65864066 -.00000181  00000+0  00000+0 0  9998
2 38779   0.0778 264.2169 0004067 175.2565  41.0193  1.00273321 49039
LUCH 5B (SDCM/PRN 125)  
1 38977U 12061A   26061.72751458 -.00000149  00000+0  00000+0 0  9991
2 38977  10.2549  50.9204 0004470 222.0870 133.0852  1.00271515 48537
ASTRA 5B (EGNOS/PRN 123)
1 39617U 14011B   26061.73540129  .00000120  00000+0  00000+0 0  9990
2 39617   0.0946 297.1233 0004235  25.8038 125.8034  1.00269973 43607
LUCH 5V (SDCM/PRN 141)  
1 39727U 14023A   26061.90292933 -.00000282  00000+0  00000+0 0  9991
2 39727   4.8710  70.7871 0002944 275.0606 234.6092  1.00272214 43298
GSAT-15 (GAGAN/PRN 139) 
1 41028U 15065A   26061.84702729 -.00000274  00000+0  00000+0 0  9998
2 41028   0.0934 270.0651 0000759  82.9322 206.0286  1.00269365 37737
EUTELSAT 117 WEST B (W*)
1 41589U 16038B   26061.70758115 -.00000028  00000+0  00000+0 0  9993
2 41589   0.0344  10.3703 0000068 169.5452 118.2901  1.00271396 35593
SES-15 (WAAS/PRN 133)   
1 42709U 17026A   26061.70515447  .00000043  00000+0  00000+0 0  9991
2 42709   0.0247 275.7633 0000708  61.0250 308.3599  1.00271134  6360
QZS-2 (QZSS/PRN 194)    
1 42738U 17028A   26061.82822588 -.00000175  00000+0  00000+0 0  9992
2 42738  39.5927 244.7025 0745894 270.3157  85.4192  1.00262420  6560
QZS-3 (QZSS/PRN 199)    
1 42917U 17048A   26061.84488887 -.00000365  00000+0  00000+0 0  9996
2 42917   0.0752 219.7324 0001543 114.6315 257.3527  1.00263762 31193
QZS-4 (QZSS/PRN 195)    
1 42965U 17062A   26060.89556137 -.00000339  00000+0  00000+0 0  9994
2 42965  40.1745 344.8554 0749010 269.8374   7.7874  1.00281156 30721
BEIDOU-3 G1 (C59)       
1 43683U 18085A   26061.75854140 -.00000294  00000+0  00000+0 0  9999
2 43683   2.8063 100.4335 0001290  30.1716  83.0505  1.00269049 26999
EUTELSAT 5 WEST B (EGN*)
1 44624U 19067A   26061.72976792 -.00000059  00000+0  00000+0 0  9990
2 44624   0.0980 308.3073 0003199  40.6033  69.2675  1.00272251 23360
BEIDOU-3 G2 (C60)       
1 45344U 20017A   26061.88014759 -.00000155  00000+0  00000+0 0  9997
2 45344   2.6513  45.5391 0002703 300.6479 211.3441  1.00271169 22194
